[{
    "OBJECT_NAME": "COSMOS 1408 DEB",
    "OBJECT_ID": "1982-092Q",
    "EPOCH": "2023-11-02T11:10:31.746144",
    "MEAN_MOTION": 14.40155793,
    "ECCENTRICITY": 0.0428509,
    "INCLINATION": 82.3896,
    "RA_OF_ASC_NODE": 220.326,
    "ARG_OF_PERICENTER": 73.2388,
    "MEAN_ANOMALY": 291.5353,
    "EPHEMERIS_TYPE": 0,
    "CLASSIFICATION_TYPE": "U",
    "NORAD_CAT_ID": 49527,
    "ELEMENT_SET_NO": 999,
    "REV_AT_EPOCH": 10199,
    "BSTAR": 0.0046871,
    "MEAN_MOTION_DOT": 0.000452,
    "MEAN_MOTION_DDOT": 0
},{
    "OBJECT_NAME": "COSMOS 1408 DEB",
    "OBJECT_ID": "1982-092S",
    "EPOCH": "2023-11-02T14:28:50.029248",
    "MEAN_MOTION": 15.17442464,
    "ECCENTRICITY": 0.0129394,
    "INCLINATION": 82.3479,
    "RA_OF_ASC_NODE": 150.2713,
    "ARG_OF_PERICENTER": 224.3572,
    "MEAN_ANOMALY": 134.724,
    "EPHEMERIS_TYPE": 0,
    "CLASSIFICATION_TYPE": "U",
    "NORAD_CAT_ID": 49529,
    "ELEMENT_SET_NO": 999,
    "REV_AT_EPOCH": 10663,
    "BSTAR": 0.0032991,
    "MEAN_MOTION_DOT": 0.00082853,
    "MEAN_MOTION_DDOT": 0
},{
    "OBJECT_NAME": "COSMOS 1408 DEB",
    "OBJECT_ID": "1982-092AA",
    "EPOCH": "2023-11-02T13:58:49.354752",
    "MEAN_MOTION": 15.09170424,
    "ECCENTRICITY": 0.0134248,
    "INCLINATION": 82.5602,
    "RA_OF_ASC_NODE": 155.7672,
    "ARG_OF_PERICENTER": 127.5465,
    "MEAN_ANOMALY": 233.8052,
    "EPHEMERIS_TYPE": 0,
    "CLASSIFICATION_TYPE": "U",
    "NORAD_CAT_ID": 49537,
    "ELEMENT_SET_NO": 999,
    "REV_AT_EPOCH": 10746,
    "BSTAR": 0.0006963,
    "MEAN_MOTION_DOT": 0.00013728,
    "MEAN_MOTION_DDOT": 0
},{
    "OBJECT_NAME": "COSMOS 1408 DEB",
    "OBJECT_ID": "1982-092AC",
    "EPOCH": "2023-11-02T10:52:03.749952",
    "MEAN_MOTION": 14.4177839,
    "ECCENTRICITY": 0.0420099,
    "INCLINATION": 82.1955,
    "RA_OF_ASC_NODE": 208.6403,
    "ARG_OF_PERICENTER": 104.2909,
    "MEAN_ANOMALY": 260.5305,
    "EPHEMERIS_TYPE": 0,
    "CLASSIFICATION_TYPE": "U",
    "NORAD_CAT_ID": 49539,
    "ELEMENT_SET_NO": 999,
    "REV_AT_EPOCH": 10149,
    "BSTAR": 0.0062401,
    "MEAN_MOTION_DOT": 0.00060459,
    "MEAN_MOTION_DDOT": 0
},{
    "OBJECT_NAME": "COSMOS 1408 DEB",
    "OBJECT_ID": "1982-092CF",
    "EPOCH": "2023-11-02T13:08:32.536320",
    "MEAN_MOTION": 15.55736365,
    "ECCENTRICITY": 0.0045733,
    "INCLINATION": 82.5425,
    "RA_OF_ASC_NODE": 134.0966,
    "ARG_OF_PERICENTER": 52.8995,
    "MEAN_ANOMALY": 307.6425,
    "EPHEMERIS_TYPE": 0,
    "CLASSIFICATION_TYPE": "U",
    "NORAD_CAT_ID": 49590,
    "ELEMENT_SET_NO": 999,
    "REV_AT_EPOCH": 10881,
    "BSTAR": 0.0019225,
    "MEAN_MOTION_DOT": 0.00140787,
    "MEAN_MOTION_DDOT": 0
},{
    "OBJECT_NAME": "COSMOS 1408 DEB",
    "OBJECT_ID": "1982-092CV",
    "EPOCH": "2023-11-02T13:59:32.010432",
    "MEAN_MOTION": 15.37644194,
    "ECCENTRICITY": 0.004756,
    "INCLINATION": 82.5097,
    "RA_OF_ASC_NODE": 129.0204,
    "ARG_OF_PERICENTER": 71.4573,
    "MEAN_ANOMALY": 289.183,
    "EPHEMERIS_TYPE": 0,
    "CLASSIFICATION_TYPE": "U",
    "NORAD_CAT_ID": 49604,
    "ELEMENT_SET_NO": 999,
    "REV_AT_EPOCH": 10878,
    "BSTAR": 0.0010069,
    "MEAN_MOTION_DOT": 0.00038824,
    "MEAN_MOTION_DDOT": 0
},{
    "OBJECT_NAME": "COSMOS 1408 DEB",
    "OBJECT_ID": "1982-092DL",
    "EPOCH": "2023-11-02T17:10:46.912800",
    "MEAN_MOTION": 14.4702606,
    "ECCENTRICITY": 0.0401928,
    "INCLINATION": 81.961,
    "RA_OF_ASC_NODE": 182.3926,
    "ARG_OF_PERICENTER": 104.555,
    "MEAN_ANOMALY": 260.0571,
    "EPHEMERIS_TYPE": 0,
    "CLASSIFICATION_TYPE": "U",
    "NORAD_CAT_ID": 49619,
    "ELEMENT_SET_NO": 999,
    "REV_AT_EPOCH": 10168,
    "BSTAR": 0.0019737,
    "MEAN_MOTION_DOT": 0.00020281,
    "MEAN_MOTION_DDOT": 0
},{
    "OBJECT_NAME": "COSMOS 1408 DEB",
    "OBJECT_ID": "1982-092DP",
    "EPOCH": "2023-11-02T16:47:34.917216",
    "MEAN_MOTION": 16.0051991,
    "ECCENTRICITY": 0.0011748,
    "INCLINATION": 82.5486,
    "RA_OF_ASC_NODE": 111.7969,
    "ARG_OF_PERICENTER": 287.0372,
    "MEAN_ANOMALY": 72.9618,
    "EPHEMERIS_TYPE": 0,
    "CLASSIFICATION_TYPE": "U",
    "NORAD_CAT_ID": 49622,
    "ELEMENT_SET_NO": 999,
    "REV_AT_EPOCH": 11014,
    "BSTAR": 0.0013979,
    "MEAN_MOTION_DOT": 0.00732756,
    "MEAN_MOTION_DDOT": 0.00024697
},{
    "OBJECT_NAME": "COSMOS 1408 DEB",
    "OBJECT_ID": "1982-092HD",
    "EPOCH": "2023-11-02T20:54:18.294048",
    "MEAN_MOTION": 15.63899767,
    "ECCENTRICITY": 0.0019706,
    "INCLINATION": 82.5984,
    "RA_OF_ASC_NODE": 113.1102,
    "ARG_OF_PERICENTER": 98.0991,
    "MEAN_ANOMALY": 262.2504,
    "EPHEMERIS_TYPE": 0,
    "CLASSIFICATION_TYPE": "U",
    "NORAD_CAT_ID": 49708,
    "ELEMENT_SET_NO": 999,
    "REV_AT_EPOCH": 10944,
    "BSTAR": 0.00056021,
    "MEAN_MOTION_DOT": 0.00053381,
    "MEAN_MOTION_DDOT": 0
},{
    "OBJECT_NAME": "COSMOS 1408 DEB",
    "OBJECT_ID": "1982-092HE",
    "EPOCH": "2023-11-02T14:08:02.411520",
    "MEAN_MOTION": 15.45382704,
    "ECCENTRICITY": 0.0054937,
    "INCLINATION": 82.6104,
    "RA_OF_ASC_NODE": 142.6875,
    "ARG_OF_PERICENTER": 55.8888,
    "MEAN_ANOMALY": 304.7555,
    "EPHEMERIS_TYPE": 0,
    "CLASSIFICATION_TYPE": "U",
    "NORAD_CAT_ID": 49709,
    "ELEMENT_SET_NO": 999,
    "REV_AT_EPOCH": 10762,
    "BSTAR": 0.001663,
    "MEAN_MOTION_DOT": 0.00084867,
    "MEAN_MOTION_DDOT": 0
},{
    "OBJECT_NAME": "COSMOS 1408 DEB",
    "OBJECT_ID": "1982-092JA",
    "EPOCH": "2023-11-02T16:40:29.071488",
    "MEAN_MOTION": 15.97845599,
    "ECCENTRICITY": 0.0008593,
    "INCLINATION": 82.5427,
    "RA_OF_ASC_NODE": 115.7216,
    "ARG_OF_PERICENTER": 6.3863,
    "MEAN_ANOMALY": 353.7521,
    "EPHEMERIS_TYPE": 0,
    "CLASSIFICATION_TYPE": "U",
    "NORAD_CAT_ID": 49784,
    "ELEMENT_SET_NO": 999,
    "REV_AT_EPOCH": 10999,
    "BSTAR": 0.0018907,
    "MEAN_MOTION_DOT": 0.00848679,
    "MEAN_MOTION_DDOT": 0.00032767
},{
    "OBJECT_NAME": "COSMOS 1408 DEB",
    "OBJECT_ID": "1982-092JF",
    "EPOCH": "2023-11-02T19:59:43.391904",
    "MEAN_MOTION": 15.31495877,
    "ECCENTRICITY": 0.0071878,
    "INCLINATION": 82.6033,
    "RA_OF_ASC_NODE": 143.65,
    "ARG_OF_PERICENTER": 66.71,
    "MEAN_ANOMALY": 294.1686,
    "EPHEMERIS_TYPE": 0,
    "CLASSIFICATION_TYPE": "U",
    "NORAD_CAT_ID": 49789,
    "ELEMENT_SET_NO": 999,
    "REV_AT_EPOCH": 10825,
    "BSTAR": 0.00083319,
    "MEAN_MOTION_DOT": 0.00027567,
    "MEAN_MOTION_DDOT": 0
},{
    "OBJECT_NAME": "COSMOS 1408 DEB",
    "OBJECT_ID": "1982-092KK",
    "EPOCH": "2023-11-02T11:58:59.651328",
    "MEAN_MOTION": 15.83956736,
    "ECCENTRICITY": 0.0012502,
    "INCLINATION": 82.5531,
    "RA_OF_ASC_NODE": 117.1597,
    "ARG_OF_PERICENTER": 332.1595,
    "MEAN_ANOMALY": 27.9003,
    "EPHEMERIS_TYPE": 0,
    "CLASSIFICATION_TYPE": "U",
    "NORAD_CAT_ID": 49828,
    "ELEMENT_SET_NO": 999,
    "REV_AT_EPOCH": 10801,
    "BSTAR": 0.0015692,
    "MEAN_MOTION_DOT": 0.00363881,
    "MEAN_MOTION_DDOT": 0
},{
    "OBJECT_NAME": "COSMOS 1408 DEB",
    "OBJECT_ID": "1982-092KX",
    "EPOCH": "2023-11-02T13:19:38.055648",
    "MEAN_MOTION": 15.27198904,
    "ECCENTRICITY": 0.0089061,
    "INCLINATION": 82.4817,
    "RA_OF_ASC_NODE": 139.9583,
    "ARG_OF_PERICENTER": 147.8385,
    "MEAN_ANOMALY": 212.8332,
    "EPHEMERIS_TYPE": 0,
    "CLASSIFICATION_TYPE": "U",
    "NORAD_CAT_ID": 49840,
    "ELEMENT_SET_NO": 999,
    "REV_AT_EPOCH": 10601,
    "BSTAR": 0.0015734,
    "MEAN_MOTION_DOT": 0.00047402,
    "MEAN_MOTION_DDOT": 0
},{
    "OBJECT_NAME": "COSMOS 1408 DEB",
    "OBJECT_ID": "1982-092LB",
    "EPOCH": "2023-11-02T11:18:35.198208",
    "MEAN_MOTION": 15.57352973,
    "ECCENTRICITY": 0.0011279,
    "INCLINATION": 82.5607,
    "RA_OF_ASC_NODE": 118.9044,
    "ARG_OF_PERICENTER": 12.1674,
    "MEAN_ANOMALY": 347.9851,
    "EPHEMERIS_TYPE": 0,
    "CLASSIFICATION_TYPE": "U",
    "NORAD_CAT_ID": 49844,
    "ELEMENT_SET_NO": 999,
    "REV_AT_EPOCH": 10779,
    "BSTAR": 0.00089783,
    "MEAN_MOTION_DOT": 0.0006626,
    "MEAN_MOTION_DDOT": 0
},{
    "OBJECT_NAME": "COSMOS 1408 DEB",
    "OBJECT_ID": "1982-092NB",
    "EPOCH": "2023-11-02T12:42:57.495168",
    "MEAN_MOTION": 15.69702234,
    "ECCENTRICITY": 0.0012557,
    "INCLINATION": 82.5575,
    "RA_OF_ASC_NODE": 115.3594,
    "ARG_OF_PERICENTER": 56.9608,
    "MEAN_ANOMALY": 303.2858,
    "EPHEMERIS_TYPE": 0,
    "CLASSIFICATION_TYPE": "U",
    "NORAD_CAT_ID": 49892,
    "ELEMENT_SET_NO": 999,
    "REV_AT_EPOCH": 10986,
    "BSTAR": 0.0011158,
    "MEAN_MOTION_DOT": 0.00134656,
    "MEAN_MOTION_DDOT": 0
},{
    "OBJECT_NAME": "COSMOS 1408 DEB",
    "OBJECT_ID": "1982-092PY",
    "EPOCH": "2023-11-02T17:38:39.338592",
    "MEAN_MOTION": 15.75273357,
    "ECCENTRICITY": 0.0012493,
    "INCLINATION": 82.5351,
    "RA_OF_ASC_NODE": 116.771,
    "ARG_OF_PERICENTER": 354.0632,
    "MEAN_ANOMALY": 6.0482,
    "EPHEMERIS_TYPE": 0,
    "CLASSIFICATION_TYPE": "U",
    "NORAD_CAT_ID": 49981,
    "ELEMENT_SET_NO": 999,
    "REV_AT_EPOCH": 10785,
    "BSTAR": 0.0014112,
    "MEAN_MOTION_DOT": 0.00217519,
    "MEAN_MOTION_DDOT": 0
},{
    "OBJECT_NAME": "COSMOS 1408 DEB",
    "OBJECT_ID": "1982-092QP",
    "EPOCH": "2023-11-02T13:54:25.026912",
    "MEAN_MOTION": 15.40208354,
    "ECCENTRICITY": 0.0068623,
    "INCLINATION": 82.6404,
    "RA_OF_ASC_NODE": 150.5237,
    "ARG_OF_PERICENTER": 124.3099,
    "MEAN_ANOMALY": 236.4668,
    "EPHEMERIS_TYPE": 0,
    "CLASSIFICATION_TYPE": "U",
    "NORAD_CAT_ID": 49996,
    "ELEMENT_SET_NO": 999,
    "REV_AT_EPOCH": 10740,
    "BSTAR": 0.0017788,
    "MEAN_MOTION_DOT": 0.00078292,
    "MEAN_MOTION_DDOT": 0
}]